GAOFEN-5 01             
1 43461U 18043A   26027.82618130  .00000862  00000+0  18790-3 0  9993
2 43461  98.4392 356.6166 0002508 127.5293 232.6135 14.60473302411202
GAOFEN-6                
1 43484U 18048A   26027.86587169  .00001025  00000+0  15386-3 0  9994
2 43484  97.7960  95.5681 0010767 270.4912  89.5065 14.76578673412681
GAOFEN-11 01            
1 43585U 18063A   26027.84969094  .00008602  00000+0  15076-3 0  9996
2 43585  97.1492  95.4259 0006107 124.7411 235.4417 15.50796537418565
ICESAT-2                
1 43613U 18070A   26027.83354625  .00004699  00000+0  17060-3 0  9990
2 43613  92.0017 253.1691 0001847  29.7681 330.3673 15.28280170411025
HYSIS                   
1 43719U 18096A   26027.86295308  .00001626  00000+0  22910-3 0  9997
2 43719  98.0027  95.5976 0000749 124.6022 235.5260 14.78641489386686
KAZSTSAT                
1 43783U 18099AB  26027.04770507  .00002928  00000+0  24291-3 0  9990
2 43783  97.4477  65.2588 0009239 140.3061 219.8841 14.99496965390150
SAUDISAT 5A             
1 43831U 18102A   26027.88914157  .00008762  00000+0  33956-3 0  9992
2 43831  97.3282  92.1926 0008449 271.2875  88.7396 15.26349158394267
SAUDISAT 5B             
1 43833U 18102C   26027.86941348  .00009028  00000+0  34633-3 0  9993
2 43833  97.3376  94.9936 0009196 274.1588  85.8599 15.26673327394370
GAOFEN-10R              
1 44622U 19066A   26027.88005941  .00002815  00000+0  35310-3 0  9992
2 44622  98.0332 340.5875 0005484 237.8769 122.1912 14.82993603341584
CARTOSAT-3              
1 44804U 19081A   26027.86726439  .00004864  00000+0  23405-3 0  9999
2 44804  97.4512  91.8475 0012286 287.8452  72.1442 15.19183303342169
GAOFEN-12 01            
1 44819U 19082A   26027.83094330  .00000888  00000+0  12204-3 0  9998
2 44819  97.8131  37.9052 0004048  97.6794 262.4879 14.80725464333324
CSG-1                   
1 44873U 19092A   26027.83197353  .00001077  00000+0  14187-3 0  9991
2 44873  97.8827 213.4667 0001240  85.4929 274.6426 14.82150986330687
NEMO-HD                 
1 46277U 20061F   26027.86697619  .00015007  00000+0  35967-3 0  9999
2 46277  97.2139  91.3942 0001785 126.4049 233.7363 15.41501419300342
SENTINEL-6A             
1 46984U 20086A   26027.54881480 -.00000058  00000+0  13775-4 0  9992
2 46984  66.0408  67.1627 0007868 270.1702  89.8412 12.80929119242310
GAOFEN-12 02            
1 48079U 21026A   26027.82810154  .00000906  00000+0  12453-3 0  9997
2 48079  97.9883  26.6219 0001730 359.5497   0.5713 14.80745529260990
PLEIADES NEO 3          
1 48268U 21034A   26027.71809056  .00000981  00000+0  13116-3 0  9993
2 48268  97.8940 104.4997 0001425  91.2742 268.8635 14.81685537256850
PLEIADES NEO 4          
1 49070U 21073E   26027.81937181  .00000302  00000+0  44930-4 0  9996
2 49070  97.8938 104.5953 0001298  90.4073 269.7288 14.81673207240586
LANDSAT 9               
1 49260U 21088A   26027.63062664  .00000721  00000+0  17004-3 0  9994
2 49260  98.2023 100.0609 0001229  95.9225 264.2113 14.57127917230535
CSG-2                   
1 51444U 22008A   26027.79822255  .00000910  00000+0  12086-3 0  9996
2 51444  97.8831 213.4312 0001520  82.0008 278.1378 14.82150124215796
GAOFEN-12 03            
1 52912U 22069A   26027.82353773  .00001437  00000+0  19785-3 0  9990
2 52912  97.8459 279.1060 0000659 101.3476 258.7810 14.79746336193857
SWOT                    
1 54754U 22173A   26027.79501746  .00000155  00000+0  10700-3 0  9997
2 54754  77.6077 224.8197 0000482  20.0752 340.0418 14.00170725159501
GAOFEN-12 04            
1 57654U 23123A   26027.85596683  .00002423  00000+0  32808-3 0  9999
2 57654  97.9132 307.9222 0001534  92.7974 267.3414 14.79870667131878
PARS 1                  
1 59065U 24039Q   26027.88471816  .00017272  00000+0  40296-3 0  9995
2 59065  97.4686   4.8531 0007821 260.3670  99.6693 15.42261330106994
RESURS-P 4              
1 59371U 24061A   26027.87713992  .00005994  00000+0  19321-3 0  9996
2 59371  97.2593 338.2909 0002805 110.7851 249.3692 15.32536999102273
LEGION 1                
1 59625U 24081A   26027.78079639  .00007438  00000+0  37908-3 0  9999
2 59625  97.5147 107.0285 0005914 135.0102 225.1611 15.17044733 96251
LEGION 2                
1 59626U 24081B   26027.74739160  .00007650  00000+0  38944-3 0  9995
2 59626  97.5153 107.0856 0008147 123.2227 236.9788 15.17065048 96258
ALOS-4 (DAICHI-4)       
1 60182U 24123A   26027.82035228  .00002975  00000+0  40519-3 0  9990
2 60182  97.9222 127.0073 0001490 102.2728 257.8650 14.79467113 85128
LEGION 3                
1 60452U 24146A   26027.49084136  .00007728  00000+0  41222-3 0  9993
2 60452  45.0014  64.8248 0011089  89.4043 270.8106 15.15654674 80671
LEGION 4                
1 60453U 24146B   26027.75355941  .00009774  00000+0  51702-3 0  9995
2 60453  45.0013 155.2694 0012190 231.9692 128.0087 15.15680119 79560
SENTINEL-2C             
1 60989U 24157A   26027.68300763  .00000238  00000+0  10744-3 0  9992
2 60989  98.5615 104.4892 0001211  83.6919 276.4401 14.30826523 72891
IONOSFERA-M 1           
1 61735U 24199A   26027.82193868  .00000101  00000+0  64871-4 0  9990
2 61735  98.7375 262.3089 0001313 135.0422 225.0863 14.22726593107744
IONOSFERA-M 2           
1 61736U 24199B   26027.85651019  .00000104  00000+0  66230-4 0  9995
2 61736  98.7374 262.2551 0001523  51.4303 308.7011 14.22728941110870
BIOMASS                 
1 63772U 25090A   26027.50430182  .00000808  00000+0  15090-3 0  9994
2 63772  98.0723 216.8496 0001148  96.5090 263.6245 14.67538070 40053
GOSAT-GW (IBUKI GW)     
1 64694U 25141A   26027.80468748  .00001649  00000+0  29903-3 0  9999
2 64694  98.0469 327.4933 0001549  87.6178 272.5204 14.67553616 31251
IONOSFERA-M 3           
1 64876U 25155A   26027.88929074  .00000154  00000+0  90060-4 0  9991
2 64876  98.5849 353.4649 0000199 265.4608  94.6547 14.21455416 26477
IONOSFERA-M 4           
1 64877U 25155B   26027.85392801  .00000161  00000+0  92978-4 0  9999
2 64877  98.5847 353.3494 0000461 101.3802 258.7427 14.21456835 26464
MICROCARB               
1 64899U 25156A   26027.66709397  .00001140  00000+0  18859-3 0  9998
2 64899  97.9962 107.2645 0016357   6.1088 354.0316 14.72149395 27297
CO3D 3                  
1 64900U 25156B   26027.85344954  .00026707  00000+0  12326-2 0  9994
2 64900  97.4331 108.5599 0000743 334.7563  25.3636 15.20194987 28214
CO3D 4                  
1 64901U 25156C   26024.43082325  .00001209  00000+0  58930-4 0  9990
2 64901  97.4333 105.1861 0001468  74.7393 285.4004 15.20209618 27696
CO3D 2                  
1 64902U 25156D   26026.56963556  .00005838  00000+0  27234-3 0  9995
2 64902  97.3765 107.1621 0018713 183.2198 176.8920 15.20080350 28018
CO3D 1                  
1 64903U 25156E   26026.10895361 -.00039412  00000+0 -15736-2 0  9994
2 64903  96.9694 106.1754 0104770 137.1479 223.7983 15.20192654 27943
SENTINEL-6B             
1 66514U 25264A   26027.78339884 -.00000058  00000+0  15311-4 0  9996
2 66514  66.0409  66.8015 0008061 270.4629  89.5462 12.80930094  9188
CSG-3                   
1 67304U 26001A   26027.84548385  .00000761  00000+0  10118-3 0  9998
2 67304  97.8454 213.4930 0001609  82.7071 277.4326 14.82512683  3679
